[
    {
        "Altitude(m)": 611965.2338134748,
        "Argument of Periapsis(deg)": 0.0,
        "Eccentricity": 0.0,
        "Inclination(deg)": 60.0,
        "Latitude(deg)": 59.14030845166158,
        "Longitude(deg)": 73.96973612484145,
        "Mean Anomaly(deg)": 81.81819999999999,
        "RAAN(deg)": 100.0,
        "Satellite Name": "Test1 445",
        "Satellite Number": 445,
        "Semi-Major Axis(m)": 6980739.136638005,
        "Time(s)": 0
    },
    {
        "Altitude(m)": 611995.8594975771,
        "Argument of Periapsis(deg)": 0.00010418945913296404,
        "Eccentricity": 0.0,
        "Inclination(deg)": 60.0,
        "Latitude(deg)": 59.283409374257374,
        "Longitude(deg)": 75.10310272829611,
        "Mean Anomaly(deg)": 82.43830614546184,
        "RAAN(deg)": 99.99957995086025,
        "Satellite Name": "Test1 445",
        "Satellite Number": 445,
        "Semi-Major Axis(m)": 6980739.136638005,
        "Time(s)": 10
    }
]